0 THORAD AGENA D DEB
1 04768U 70025DN  13282.18248938  .00000246  00000-0  34066-3 0  7103
2 04768 100.1106 007.2046 0031743 216.0632 177.5409 13.68898589163854
0 THORAD AGENA D DEB
1 04768U 70025DN  13283.20262791  .00000247  00000-0  34235-3 0  7110
2 04768 100.1107 008.2733 0031777 213.4962 164.8079 13.68899263163990
0 THORAD AGENA D DEB
1 04768U 70025DN  13285.85264962  .00000266  00000-0  36369-3 0  7138
2 04768 100.1108 011.0496 0031883 207.0061 264.0121 13.68900559164359
0 THORAD AGENA D DEB
1 04768U 70025DN  13287.15848794  .00000305  00000-0  40933-3 0  7141
2 04768 100.1107 012.4177 0031930 203.7745 219.1722 13.68901504164533
0 THORAD AGENA D DEB
1 04768U 70025DN  13288.17258509  .00000377  00000-0  49149-3 0  7151
2 04768 100.1107 013.4802 0031957 201.2975 176.6041 13.68902718164670
0 THORAD AGENA D DEB
1 04768U 70025DN  13289.19826571  .00000338  00000-0  44690-3 0  7168
2 04768 100.1106 014.5549 0031988 198.8207 191.0946 13.68903527164812
0 THORAD AGENA D DEB
1 04768U 70025DN  13290.22107051  .00000359  00000-0  47164-3 0  7172
2 04768 100.1103 015.6265 0032023 196.3387 191.4289 13.68904476164952
0 THORAD AGENA D DEB
1 04768U 70025DN  13291.77508789  .00000367  00000-0  48062-3 0  7184
2 04768 100.1100 017.2546 0032067 192.5206 289.6066 13.68905584165163
0 THORAD AGENA D DEB
1 04768U 70025DN  13292.87060801  .00000390  00000-0  50705-3 0  7198
2 04768 100.1099 018.4026 0032088 189.7684 288.3812 13.68906495165311
0 THORAD AGENA D DEB
1 04768U 70025DN  13294.17479861  .00000369  00000-0  48226-3 0  7206
2 04768 100.1098 019.7689 0032107 186.6021 235.3866 13.68907994165497
0 THORAD AGENA D DEB
1 04768U 70025DN  13295.19624984  .00000389  00000-0  50559-3 0  7212
2 04768 100.1098 020.8390 0032129 184.1028 229.0869 13.68908829165630
